FLOCK 4H-32             
1 66735U 25276BX  26095.71353038  .00007936  00000+0  38312-3 0  9995
2 66735  97.4250 170.4899 0003279 251.3714 108.7165 15.18927649 19413
FLOCK 4H-33             
1 66736U 25276BY  26095.74911705  .00009244  00000+0  43045-3 0  9993
2 66736  97.4250 170.7439 0002722 156.5283 203.6076 15.20132906 19431
FLOCK 4H-34             
1 66737U 25276BZ  26095.77332773  .00006784  00000+0  32118-3 0  9994
2 66737  97.4264 170.7356 0002734 164.3187 195.8133 15.19657835 18681
FLOCK 4H-35             
1 66738U 25276CA  26095.76109751  .00008847  00000+0  41511-3 0  9991
2 66738  97.4226 170.6872 0002599 148.4349 211.7042 15.19880387 18726
FLOCK 4H-36             
1 66739U 25276CB  26095.65164626  .00007847  00000+0  37139-3 0  9992
2 66739  97.4274 170.6084 0002534 175.8437 184.2819 15.19622091 19415
