[{"OBJECT_NAME":"FLOCK 4H-32","OBJECT_ID":"2025-276BX","EPOCH":"2026-04-05T17:07:29.024832","MEAN_MOTION":15.18927649,"ECCENTRICITY":0.0003279,"INCLINATION":97.425,"RA_OF_ASC_NODE":170.4899,"ARG_OF_PERICENTER":251.3714,"MEAN_ANOMALY":108.7165,"EPHEMERIS_TYPE":0,"CLASSIFICATION_TYPE":"U","NORAD_CAT_ID":66735,"ELEMENT_SET_NO":999,"REV_AT_EPOCH":1941,"BSTAR":0.00038312,"MEAN_MOTION_DOT":7.936e-5,"MEAN_MOTION_DDOT":0},{"OBJECT_NAME":"FLOCK 4H-33","OBJECT_ID":"2025-276BY","EPOCH":"2026-04-05T17:58:43.713120","MEAN_MOTION":15.20132906,"ECCENTRICITY":0.0002722,"INCLINATION":97.425,"RA_OF_ASC_NODE":170.7439,"ARG_OF_PERICENTER":156.5283,"MEAN_ANOMALY":203.6076,"EPHEMERIS_TYPE":0,"CLASSIFICATION_TYPE":"U","NORAD_CAT_ID":66736,"ELEMENT_SET_NO":999,"REV_AT_EPOCH":1943,"BSTAR":0.00043045,"MEAN_MOTION_DOT":9.244e-5,"MEAN_MOTION_DDOT":0},{"OBJECT_NAME":"FLOCK 4H-34","OBJECT_ID":"2025-276BZ","EPOCH":"2026-04-05T18:33:35.515872","MEAN_MOTION":15.19657835,"ECCENTRICITY":0.0002734,"INCLINATION":97.4264,"RA_OF_ASC_NODE":170.7356,"ARG_OF_PERICENTER":164.3187,"MEAN_ANOMALY":195.8133,"EPHEMERIS_TYPE":0,"CLASSIFICATION_TYPE":"U","NORAD_CAT_ID":66737,"ELEMENT_SET_NO":999,"REV_AT_EPOCH":1868,"BSTAR":0.00032118,"MEAN_MOTION_DOT":6.784e-5,"MEAN_MOTION_DDOT":0},{"OBJECT_NAME":"FLOCK 4H-35","OBJECT_ID":"2025-276CA","EPOCH":"2026-04-05T18:15:58.824864","MEAN_MOTION":15.19880387,"ECCENTRICITY":0.0002599,"INCLINATION":97.4226,"RA_OF_ASC_NODE":170.6872,"ARG_OF_PERICENTER":148.4349,"MEAN_ANOMALY":211.7042,"EPHEMERIS_TYPE":0,"CLASSIFICATION_TYPE":"U","NORAD_CAT_ID":66738,"ELEMENT_SET_NO":999,"REV_AT_EPOCH":1872,"BSTAR":0.00041511,"MEAN_MOTION_DOT":8.847e-5,"MEAN_MOTION_DDOT":0},{"OBJECT_NAME":"FLOCK 4H-36","OBJECT_ID":"2025-276CB","EPOCH":"2026-04-05T15:38:22.236864","MEAN_MOTION":15.19622091,"ECCENTRICITY":0.0002534,"INCLINATION":97.4274,"RA_OF_ASC_NODE":170.6084,"ARG_OF_PERICENTER":175.8437,"MEAN_ANOMALY":184.2819,"EPHEMERIS_TYPE":0,"CLASSIFICATION_TYPE":"U","NORAD_CAT_ID":66739,"ELEMENT_SET_NO":999,"REV_AT_EPOCH":1941,"BSTAR":0.00037139,"MEAN_MOTION_DOT":7.847e-5,"MEAN_MOTION_DDOT":0}]
